[
  {
    "name": "ä¸­å›½",
    "code": "CN",
    "dial_code": "+86",
    "flag": "ğŸ‡¨ğŸ‡³"
  },
  {
    "name": "ç¾å›½",
    "code": "US",
    "dial_code": "+1",
    "flag": "ğŸ‡ºğŸ‡¸"
  },
  {
    "name": "è‹±å›½",
    "code": "GB",
    "dial_code": "+44",
    "flag": "ğŸ‡¬ğŸ‡§"
  },
  {
    "name": "æ—¥æœ¬",
    "code": "JP",
    "dial_code": "+81",
    "flag": "ğŸ‡¯ğŸ‡µ"
  },
  {
    "name": "éŸ©å›½",
    "code": "KR",
    "dial_code": "+82",
    "flag": "ğŸ‡°ğŸ‡·"
  },
  {
    "name": "å¾·å›½",
    "code": "DE",
    "dial_code": "+49",
    "flag": "ğŸ‡©ğŸ‡ª"
  },
  {
    "name": "æ³•å›½",
    "code": "FR",
    "dial_code": "+33",
    "flag": "ğŸ‡«ğŸ‡·"
  },
  {
    "name": "æ„å¤§åˆ©",
    "code": "IT",
    "dial_code": "+39",
    "flag": "ğŸ‡®ğŸ‡¹"
  },
  {
    "name": "åŠ æ‹¿å¤§",
    "code": "CA",
    "dial_code": "+1",
    "flag": "ğŸ‡¨ğŸ‡¦"
  },
  {
    "name": "æ¾³å¤§åˆ©äºš",
    "code": "AU",
    "dial_code": "+61",
    "flag": "ğŸ‡¦ğŸ‡º"
  },
  {
    "name": "å·´è¥¿",
    "code": "BR",
    "dial_code": "+55",
    "flag": "ğŸ‡§ğŸ‡·"
  },
  {
    "name": "å°åº¦",
    "code": "IN",
    "dial_code": "+91",
    "flag": "ğŸ‡®ğŸ‡³"
  },
  {
    "name": "ä¿„ç½—æ–¯",
    "code": "RU",
    "dial_code": "+7",
    "flag": "ğŸ‡·ğŸ‡º"
  },
  {
    "name": "å¢¨è¥¿å“¥",
    "code": "MX",
    "dial_code": "+52",
    "flag": "ğŸ‡²ğŸ‡½"
  },
  {
    "name": "è¥¿ç­ç‰™",
    "code": "ES",
    "dial_code": "+34",
    "flag": "ğŸ‡ªğŸ‡¸"
  },
  {
    "name": "å—é",
    "code": "ZA",
    "dial_code": "+27",
    "flag": "ğŸ‡¿ğŸ‡¦"
  },
  {
    "name": "åŸƒåŠ",
    "code": "EG",
    "dial_code": "+20",
    "flag": "ğŸ‡ªğŸ‡¬"
  },
  {
    "name": "æ–°åŠ å¡",
    "code": "SG",
    "dial_code": "+65",
    "flag": "ğŸ‡¸ğŸ‡¬"
  },
  {
    "name": "é©¬æ¥è¥¿äºš",
    "code": "MY",
    "dial_code": "+60",
    "flag": "ğŸ‡²ğŸ‡¾"
  },
  {
    "name": "æ³°å›½",
    "code": "TH",
    "dial_code": "+66",
    "flag": "ğŸ‡¹ğŸ‡­"
  },
  {
    "name": "è¶Šå—",
    "code": "VN",
    "dial_code": "+84",
    "flag": "ğŸ‡»ğŸ‡³"
  },
  {
    "name": "è²å¾‹å®¾",
    "code": "PH",
    "dial_code": "+63",
    "flag": "ğŸ‡µğŸ‡­"
  },
  {
    "name": "å°åº¦å°¼è¥¿äºš",
    "code": "ID",
    "dial_code": "+62",
    "flag": "ğŸ‡®ğŸ‡©"
  },
  {
    "name": "æ²™ç‰¹é˜¿æ‹‰ä¼¯",
    "code": "SA",
    "dial_code": "+966",
    "flag": "ğŸ‡¸ğŸ‡¦"
  },
  {
    "name": "é˜¿è”é…‹",
    "code": "AE",
    "dial_code": "+971",
    "flag": "ğŸ‡¦ğŸ‡ª"
  },
  {
    "name": "åœŸè€³å…¶",
    "code": "TR",
    "dial_code": "+90",
    "flag": "ğŸ‡¹ğŸ‡·"
  },
  {
    "name": "è·å…°",
    "code": "NL",
    "dial_code": "+31",
    "flag": "ğŸ‡³ğŸ‡±"
  },
  {
    "name": "ç‘å£«",
    "code": "CH",
    "dial_code": "+41",
    "flag": "ğŸ‡¨ğŸ‡­"
  },
  {
    "name": "ç‘å…¸",
    "code": "SE",
    "dial_code": "+46",
    "flag": "ğŸ‡¸ğŸ‡ª"
  },
  {
    "name": "æŒªå¨",
    "code": "NO",
    "dial_code": "+47",
    "flag": "ğŸ‡³ğŸ‡´"
  },
  {
    "name": "ä¸¹éº¦",
    "code": "DK",
    "dial_code": "+45",
    "flag": "ğŸ‡©ğŸ‡°"
  },
  {
    "name": "èŠ¬å…°",
    "code": "FI",
    "dial_code": "+358",
    "flag": "ğŸ‡«ğŸ‡®"
  },
  {
    "name": "æ¯”åˆ©æ—¶",
    "code": "BE",
    "dial_code": "+32",
    "flag": "ğŸ‡§ğŸ‡ª"
  },
  {
    "name": "å¥¥åœ°åˆ©",
    "code": "AT",
    "dial_code": "+43",
    "flag": "ğŸ‡¦ğŸ‡¹"
  },
  {
    "name": "æ³¢å…°",
    "code": "PL",
    "dial_code": "+48",
    "flag": "ğŸ‡µğŸ‡±"
  },
  {
    "name": "è‘¡è„ç‰™",
    "code": "PT",
    "dial_code": "+351",
    "flag": "ğŸ‡µğŸ‡¹"
  },
  {
    "name": "å¸Œè…Š",
    "code": "GR",
    "dial_code": "+30",
    "flag": "ğŸ‡¬ğŸ‡·"
  },
  {
    "name": "çˆ±å°”å…°",
    "code": "IE",
    "dial_code": "+353",
    "flag": "ğŸ‡®ğŸ‡ª"
  },
  {
    "name": "æ–°è¥¿å…°",
    "code": "NZ",
    "dial_code": "+64",
    "flag": "ğŸ‡³ğŸ‡¿"
  },
  {
    "name": "é˜¿æ ¹å»·",
    "code": "AR",
    "dial_code": "+54",
    "flag": "ğŸ‡¦ğŸ‡·"
  },
  {
    "name": "æ™ºåˆ©",
    "code": "CL",
    "dial_code": "+56",
    "flag": "ğŸ‡¨ğŸ‡±"
  },
  {
    "name": "å“¥ä¼¦æ¯”äºš",
    "code": "CO",
    "dial_code": "+57",
    "flag": "ğŸ‡¨ğŸ‡´"
  },
  {
    "name": "ç§˜é²",
    "code": "PE",
    "dial_code": "+51",
    "flag": "ğŸ‡µğŸ‡ª"
  }
]
